NORAD_CAT_ID,OBJECT_NAME,OBJECT_TYPE,EPOCH,MEAN_MOTION,ECCENTRICITY,INCLINATION,RA_OF_ASC_NODE,ARG_OF_PERICENTER,MEAN_ANOMALY,BSTAR,MEAN_MOTION_DOT,MEAN_MOTION_DDOT,TLE_LINE0,TLE_LINE1,TLE_LINE2,SEMIMAJOR_AXIS,PERIOD,APOGEE,PERIGEE,DECAYED
51898.0,STARLINK-3597,PAYLOAD,2024-06-18 12:16:15,15.0883495,0.0001252,53.2154,303.6129,88.8394,271.2741,0.00010908,1.448e-05,0.0,0 STARLINK-3597,1 51898U 22022AY  24170.51129062  .00001448  00000-0  10908-3 0  9997,2 51898  53.2154 303.6129 0001252  88.8394 271.2741 15.08834950128319,6917.896,95.438,540.627,538.895,0.0
51898.0,STARLINK-3597,PAYLOAD,2024-06-18 13:51:38,15.08837967,0.0001299,53.2162,303.3145,93.212,266.9021,0.00014533,2.026e-05,0.0,0 STARLINK-3597,1 51898U 22022AY  24170.57752922  .00002026  00000-0  14533-3 0  9991,2 51898  53.2162 303.3145 0001299  93.2120 266.9021 15.08837967128325,6917.887,95.438,540.65,538.853,0.0
51898.0,STARLINK-3597,PAYLOAD,2024-06-18 15:27:01,15.08839112,0.0001276,53.2165,303.0178,91.748,268.3659,0.00016684,2.368e-05,0.0,0 STARLINK-3597,1 51898U 22022AY  24170.64376914  .00002368  00000-0  16684-3 0  9990,2 51898  53.2165 303.0178 0001276  91.7480 268.3659 15.08839112128336,6917.883,95.438,540.631,538.865,0.0
51898.0,STARLINK-3597,PAYLOAD,2024-06-19 15:17:48,15.08842661,0.0001305,53.2167,298.5573,90.4942,269.6199,0.00020939,3.046e-05,0.0,0 STARLINK-3597,1 51898U 22022AY  24171.63736942  .00003046  00000-0  20939-3 0  9993,2 51898  53.2167 298.5573 0001305  90.4942 269.6199 15.08842661128489,6917.872,95.437,540.64,538.834,0.0
51898.0,STARLINK-3597,PAYLOAD,2024-06-19 18:28:34,15.08844598,0.0001298,53.217,297.9628,90.3728,269.7413,0.00021671,3.163e-05,0.0,0 STARLINK-3597,1 51898U 22022AY  24171.76984838  .00003163  00000-0  21671-3 0  9990,2 51898  53.2170 297.9628 0001298  90.3728 269.7413 15.08844598128503,6917.866,95.437,540.629,538.833,0.0
51898.0,STARLINK-3597,PAYLOAD,2024-06-20 13:33:12,15.08840583,0.0001195,53.2167,294.3927,91.0777,269.0352,0.00022454,3.288e-05,0.0,0 STARLINK-3597,1 51898U 22022AY  24172.56472980  .00003288  00000-0  22454-3 0  9997,2 51898  53.2167 294.3927 0001195  91.0777 269.0352 15.08840583128628,6917.879,95.438,540.57,538.917,0.0
51898.0,STARLINK-3597,PAYLOAD,2024-06-20 16:43:58,15.0885079,0.000124,53.2178,293.7976,85.5493,274.564,0.00015746,2.22e-05,0.0,0 STARLINK-3597,1 51898U 22022AY  24172.69720349  .00002220  00000-0  15746-3 0  9997,2 51898  53.2178 293.7976 0001240  85.5493 274.5640 15.08850790128645,6917.847,95.437,540.57,538.855,0.0
51898.0,STARLINK-3597,PAYLOAD,2024-06-21 00:40:54,15.08846473,0.0001357,53.2191,292.3127,93.8325,266.2823,4.5087e-05,4.3e-06,0.0,0 STARLINK-3597,1 51898U 22022AY  24173.02840371  .00000430  00000-0  45087-4 0  9996,2 51898  53.2191 292.3127 0001357  93.8325 266.2823 15.08846473128697,6917.861,95.437,540.664,538.787,0.0
51898.0,STARLINK-3597,PAYLOAD,2024-06-21 13:24:00,15.08837518,0.0001477,53.2194,289.9367,99.2874,260.8285,-1.1191e-05,-4.66e-06,0.0,0 STARLINK-3597,1 51898U 22022AY  24173.55833494 -.00000466  00000-0 -11191-4 0  9992,2 51898  53.2194 289.9367 0001477  99.2874 260.8285 15.08837518128771,6917.888,95.438,540.775,538.731,0.0
51898.0,STARLINK-3597,PAYLOAD,2024-06-22 13:14:47,15.0883807,0.0001363,53.2189,285.4754,101.2705,258.844,2.6645e-06,-2.46e-06,0.0,0 STARLINK-3597,1 51898U 22022AY  24174.55193667 -.00000246  00000-0  26645-5 0  9990,2 51898  53.2189 285.4754 0001363 101.2705 258.8440 15.08838070128928,6917.886,95.438,540.694,538.808,0.0
51898.0,STARLINK-3597,PAYLOAD,2024-06-22 16:25:33,15.08841508,0.0001318,53.2187,284.8805,95.0408,265.0734,3.5406e-05,2.76e-06,0.0,0 STARLINK-3597,1 51898U 22022AY  24174.68441424  .00000276  00000-0  35406-4 0  9997,2 51898  53.2187 284.8805 0001318  95.0408 265.0734 15.08841508128944,6917.876,95.437,540.653,538.829,0.0
51898.0,STARLINK-3597,PAYLOAD,2024-06-23 13:05:36,15.08800246,0.0001413,53.2186,281.0088,91.125,268.9904,0.00035272,5.324e-05,0.0,0 STARLINK-3597,1 51898U 22022AY  24175.54556001  .00005324  00000-0  35272-3 0  9990,2 51898  53.2186 281.0088 0001413  91.1250 268.9904 15.08800246129073,6918.002,95.44,540.844,538.889,0.0
51898.0,STARLINK-3597,PAYLOAD,2024-06-23 16:16:22,15.08808975,0.0001377,53.2192,280.4143,91.0551,269.0599,0.00024001,3.531e-05,0.0,0 STARLINK-3597,1 51898U 22022AY  24175.67803911  .00003531  00000-0  24001-3 0  9995,2 51898  53.2192 280.4143 0001377  91.0551 269.0599 15.08808975129098,6917.975,95.44,540.793,538.888,0.0
51898.0,STARLINK-3597,PAYLOAD,2024-06-24 12:56:21,15.08846721,0.0001436,53.2171,276.5571,51.8131,308.2991,0.00011862,1.601e-05,0.0,0 STARLINK-3597,1 51898U 22022AY  24176.53913978  .00001601  00000-0  11862-3 0  9993,2 51898  53.2171 276.5571 0001436  51.8131 308.2991 15.08846721129228,6917.86,95.437,540.718,538.731,0.0
51898.0,STARLINK-3597,PAYLOAD,2024-06-25 12:47:08,15.08840151,0.0001383,53.2179,272.0953,65.1588,294.9548,0.00020811,3.026e-05,0.0,0 STARLINK-3597,1 51898U 22022AY  24177.53274213  .00003026  00000-0  20811-3 0  9993,2 51898  53.2179 272.0953 0001383  65.1588 294.9548 15.08840151129372,6917.88,95.438,540.702,538.788,0.0
51898.0,STARLINK-3597,PAYLOAD,2024-06-26 11:02:31,15.0885785,0.00012,53.2182,267.9307,80.3009,279.8118,0.00010295,1.352e-05,0.0,0 STARLINK-3597,1 51898U 22022AY  24178.46008704  .00001352  00000-0  10295-3 0  9991,2 51898  53.2182 267.9307 0001200  80.3009 279.8118 15.08857850129512,6917.826,95.436,540.521,538.861,0.0
51898.0,STARLINK-3597,PAYLOAD,2024-06-27 12:28:41,15.08845942,9.86e-05,53.215,263.1712,85.2475,274.8629,3.5624e-05,2.79e-06,0.0,0 STARLINK-3597,1 51898U 22022AY  24179.51992975  .00000279  00000-0  35624-4 0  9991,2 51898  53.2150 263.1712 0000986  85.2475 274.8629 15.08845942129674,6917.862,95.437,540.409,539.045,0.0
51898.0,STARLINK-3597,PAYLOAD,2024-06-27 22:01:01,15.08830554,3.92e-05,53.2166,261.391,142.8101,217.2918,-0.00024178,-4.132e-05,0.0,0 STARLINK-3597,1 51898U 22022AY  24179.91737299 -.00004132  00000-0 -24178-3 0  9996,2 51898  53.2166 261.3910 0000392 142.8101 217.2918 15.08830554129730,6917.909,95.438,540.045,539.503,0.0
51898.0,STARLINK-3597,PAYLOAD,2024-06-28 12:19:28,15.08850289,0.0001091,53.2148,258.7117,85.1259,274.9858,0.0001355,1.87e-05,0.0,0 STARLINK-3597,1 51898U 22022AY  24180.51352890  .00001870  00000-0  13550-3 0  9990,2 51898  53.2148 258.7117 0001091  85.1259 274.9858 15.08850289129829,6917.849,95.437,540.469,538.959,0.0
51898.0,STARLINK-3597,PAYLOAD,2024-06-28 17:05:37,15.08859099,0.0001324,53.2163,257.8185,76.4654,283.6485,0.0003675,5.569e-05,0.0,0 STARLINK-3597,1 51898U 22022AY  24180.71224326  .00005569  00000-0  36750-3 0  9990,2 51898  53.2163 257.8185 0001324  76.4654 283.6485 15.08859099129856,6917.822,95.436,540.603,538.771,0.0
51898.0,STARLINK-3597,PAYLOAD,2024-06-29 04:13:21,15.08833731,0.0002423,53.215,255.7355,96.9501,263.1766,1.4778e-05,-5.3e-07,0.0,0 STARLINK-3597,1 51898U 22022AY  24181.17593869 -.00000053  00000-0  14778-4 0  9993,2 51898  53.2150 255.7355 0002423  96.9501 263.1766 15.08833731129925,6917.9,95.438,541.441,538.088,0.0
51898.0,STARLINK-3597,PAYLOAD,2024-06-29 12:10:17,15.08824822,0.0001251,53.2154,254.2526,89.9148,270.1987,-0.00010846,-2.013e-05,0.0,0 STARLINK-3597,1 51898U 22022AY  24181.50714277 -.00002013  00000-0 -10846-3 0  9998,2 51898  53.2154 254.2526 0001251  89.9148 270.1987 15.08824822129979,6917.927,95.439,540.657,538.926,0.0
51898.0,STARLINK-3597,PAYLOAD,2024-06-29 21:42:36,15.08830978,0.0001363,53.2161,252.4678,82.7889,277.3258,0.00012935,1.771e-05,0.0,0 STARLINK-3597,1 51898U 22022AY  24181.90458527  .00001771  00000-0  12935-3 0  9994,2 51898  53.2161 252.4678 0001363  82.7889 277.3258 15.08830978130030,6917.908,95.438,540.716,538.83,0.0
51898.0,STARLINK-3597,PAYLOAD,2024-06-30 10:25:41,15.08842981,0.0001324,53.2156,250.0889,79.2144,280.8997,0.00068901,0.00010696,0.0,0 STARLINK-3597,1 51898U 22022AY  24182.43450673  .00010696  00000-0  68901-3 0  9997,2 51898  53.2156 250.0889 0001324  79.2144 280.8997 15.08842981130119,6917.871,95.437,540.652,538.82,0.0
51898.0,STARLINK-3597,PAYLOAD,2024-06-30 13:36:27,15.08852008,0.0001353,53.2157,249.4941,78.1829,281.9315,0.00096527,0.00015113,0.0,0 STARLINK-3597,1 51898U 22022AY  24182.56698561  .00015113  00000-0  96527-3 0  9995,2 51898  53.2157 249.4941 0001353  78.1829 281.9315 15.08852008130130,6917.844,95.437,540.645,538.773,0.0
51898.0,STARLINK-3597,PAYLOAD,2024-06-30 21:33:23,15.08846998,0.0001384,53.2163,248.0053,76.7955,283.3191,0.00042139,6.426e-05,0.0,0 STARLINK-3597,1 51898U 22022AY  24182.89818479  .00006426  00000-0  42139-3 0  9990,2 51898  53.2163 248.0053 0001384  76.7955 283.3191 15.08846998130188,6917.859,95.437,540.681,538.767,0.0
51898.0,STARLINK-3597,PAYLOAD,2024-07-01 03:54:55,15.08844194,0.0001514,53.2156,246.8166,79.5287,280.5875,0.00019109,2.755e-05,0.0,0 STARLINK-3597,1 51898U 22022AY  24183.16314516  .00002755  00000-0  19109-3 0  9996,2 51898  53.2156 246.8166 0001514  79.5287 280.5875 15.08844194130224,6917.868,95.437,540.78,538.685,0.0
51898.0,STARLINK-3597,PAYLOAD,2024-07-01 13:27:14,15.08853748,0.0001378,53.2146,245.0318,74.5235,285.591,0.00041811,6.375e-05,0.0,0 STARLINK-3597,1 51898U 22022AY  24183.56058108  .00006375  00000-0  41811-3 0  9999,2 51898  53.2146 245.0318 0001378  74.5235 285.5910 15.08853748130285,6917.838,95.437,540.657,538.75,0.0
51898.0,STARLINK-3597,PAYLOAD,2024-07-01 21:24:09,15.08845998,0.0001097,53.2146,243.5404,92.4955,267.6163,0.00015506,2.181e-05,0.0,0 STARLINK-3597,1 51898U 22022AY  24183.89178019  .00002181  00000-0  15506-3 0  9992,2 51898  53.2146 243.5404 0001097  92.4955 267.6163 15.08845998130335,6917.862,95.437,540.486,538.968,0.0
51898.0,STARLINK-3597,PAYLOAD,2024-07-02 10:07:15,15.08841852,0.0001191,53.2151,241.1624,91.4812,268.6316,4.9708e-05,5.03e-06,0.0,0 STARLINK-3597,1 51898U 22022AY  24184.42170179  .00000503  00000-0  49708-4 0  9999,2 51898  53.2151 241.1624 0001191  91.4812 268.6316 15.08841852130410,6917.875,95.437,540.564,538.916,0.0
